SCD 1                   
1 22490U 93009B   26160.44189471  .00000366  00000+0  49422-4 0  9990
2 22490  24.9690 255.4014 0042142  56.2102  38.1507 14.46116195759990
TECHSAT 1B (GO-32)      
1 25397U 98043D   26160.47814272  .00000062  00000+0  47013-4 0  9996
2 25397  99.0065 153.0425 0000612 183.0488 177.0687 14.24426925450237
SCD 2                   
1 25504U 98060A   26160.30632159  .00000380  00000+0  55241-4 0  9994
2 25504  24.9940 120.7585 0016891  40.6954  78.4170 14.45522730459184
DLR-TUBSAT              
1 25757U 99029B   26160.50883182  .00000094  00000+0  35022-4 0  9993
2 25757  98.6694 155.7602 0014541  18.2749 341.8965 14.52424897432137
TERRA                   
1 25994U 99068A   26160.49316787  .00000338  00000+0  77728-4 0  9999
2 25994  97.9459 210.3443 0001015 224.6888 242.2888 14.61096977408484
MAROC-TUBSAT            
1 27004U 01056D   26160.48010358 -.00000015  00000+0  35459-4 0  9995
2 27004  99.8079 337.1946 0020084 160.6310 254.5212 13.70262110225138
AQUA                    
1 27424U 02022A   26160.60612259  .00000745  00000+0  15804-3 0  9997
2 27424  98.4273 129.7377 0001408  54.0068  65.6699 14.62146686282160
SHIYAN-1 (SY-1)         
1 28220U 04012A   26160.48471655  .00012670  00000+0  39271-3 0  9996
2 28220  97.8689 238.0538 0006238  57.4904 302.6939 15.33563691209915
AURA                    
1 28376U 04026A   26160.52269608  .00000745  00000+0  16055-3 0  9996
2 28376  98.3414 116.9128 0001310  71.5407 288.5936 14.61317576165097
IRS-P5 (CARTOSAT-1)     
1 28649U 05017A   26160.49498632  .00001307  00000+0  13738-3 0  9997
2 28649  97.5309 183.9086 0002635  90.0934 270.0587 14.91029325142675
SINAH 1                 
1 28893U 05043D   26160.53683285  .00000293  00000+0  65167-4 0  9999
2 28893  98.2850 294.8143 0013286 303.0468  56.9457 14.64152613 99400
RESURS-DK 1             
1 29228U 06021A   26160.30119859  .00002125  00000+0  12552-3 0  9990
2 29228  69.9339 359.9664 0006539 298.0089  62.0415 15.13181843101381
ARIRANG-2 (KOMPSAT-2)   
1 29268U 06031A   26160.64670576  .00000381  00000+0  80047-4 0  9997
2 29268  97.8313 345.4585 0015887  96.1884 352.8324 14.64655858 60374
LAPAN-TUBSAT            
1 29709U 07001A   26160.57779206  .00000468  00000+0  60257-4 0  9994
2 29709  98.1347 159.6304 0011256 204.9523 155.1149 14.85943980 50023
HAIYANG-1B              
1 31113U 07010A   26160.52350067  .00000084  00000+0  47661-4 0  9999
2 31113  98.3491 142.6661 0012572 220.2786 139.7468 14.31024954999531
COSMO-SKYMED 1          
1 31598U 07023A   26160.58231935  .00001926  00000+0  17232-3 0  9994
2 31598  97.8855 352.3753 0001057  82.7154 277.4188 14.97064798 28651
TERRASAR-X              
1 31698U 07026A   26160.28753291  .00000433  00000+0  23833-4 0  9996
2 31698  97.4448 168.1064 0001684  80.8129 279.3296 15.19149435 52027
WORLDVIEW-1 (WV-1)      
1 32060U 07041A   26160.54547175  .00005753  00000+0  23912-3 0  9995
2 32060  97.3862 280.4002 0002941  42.5143 317.6322 15.24181883 41717
YAOGAN-3                
1 32289U 07055A   26160.60981175  .00001548  00000+0  16325-3 0  9990
2 32289  97.8159 190.5625 0001806  84.2828 275.8596 14.90750606  4745
COSMO-SKYMED 2          
1 32376U 07059A   26160.59985253  .00000374  00000+0  53496-4 0  9997
2 32376  97.8885 344.3081 0001412  85.3380 274.7994 14.82148683   889
RADARSAT-2              
1 32382U 07061A   26160.62090042  .00000287  00000+0  12808-3 0  9998
2 32382  98.5782 167.6615 0001304  81.7745 278.3585 14.29984175964873
CARTOSAT-2A             
1 32783U 08021A   26160.60569097  .00000429  00000+0  64500-4 0  9994
2 32783  97.7637 209.5732 0012756 130.9349 229.2969 14.79226975977680
HUANJING 1A (HJ-1A)     
1 33320U 08041A   26160.61438622  .00000690  00000+0  88874-4 0  9994
2 33320  97.6685 146.7460 0019238 158.5284 201.6742 14.83968821957281
HUANJING 1B (HJ-1B)     
1 33321U 08041B   26160.64749477  .00000456  00000+0  61396-4 0  9991
2 33321  97.6519 149.9722 0035333 206.2107 153.7321 14.83302281957296
GEOEYE 1                
1 33331U 08042A   26160.50084235  .00000419  00000+0  87663-4 0  9996
2 33331  98.1235 234.5293 0005565  87.9185 272.2655 14.64718674949021
THEOS                   
1 33396U 08049A   26160.64145425  .00000356  00000+0  18702-3 0  9995
2 33396  98.5571 218.1702 0001266  78.8454 281.2865 14.20133207916891
COSMO-SKYMED 3          
1 33412U 08054A   26160.63977207  .00002831  00000+0  19360-3 0  9991
2 33412  97.8288  19.0857 0014317 295.4012  64.5733 15.06901957955804
YAOGAN-4                
1 33446U 08061A   26160.54375135  .00000908  00000+0  11767-3 0  9994
2 33446  97.9307  94.1106 0015761  95.0178 265.2835 14.83185458944531
GOSAT (IBUKI)           
1 33492U 09002A   26160.57014052  .00001071  00000+0  19742-3 0  9995
2 33492  98.0881 271.7470 0001672  88.7128 271.4268 14.67540035930349
DEIMOS-1                
1 35681U 09041A   26160.58972969  .00000369  00000+0  61557-4 0  9992
2 35681  97.7399 318.1474 0001138 137.7642 222.3655 14.75228950905765
